0 DELTA 1 DEB
1 27480U 68055H   13285.36668633 -.00000875  00000-0 -39667-2 0  3848
2 27480 120.8582 043.1698 2337697 099.3505 287.6986 09.47102411401851
0 DELTA 1 DEB
1 27480U 68055H   13286.31682838 -.00000933  00000-0 -42506-2 0  3859
2 27480 120.8564 044.5421 2337390 099.7324 287.2867 09.47100173401940
0 DELTA 1 DEB
1 27480U 68055H   13288.32270042 -.00001117  00000-0 -51443-2 0  3868
2 27480 120.8562 047.4428 2337201 100.6339 286.3920 09.47094662402133
0 DELTA 1 DEB
1 27480U 68055H   13291.38430769 -.00001698  00000-0 -79502-2 0  3873
2 27480 120.8552 051.8796 2337540 102.0672 284.9309 09.47081994402422
0 DELTA 1 DEB
1 27480U 68055H   13292.33447935 -.00001837  00000-0 -86475-2 0  3885
2 27480 120.8540 053.2497 2336798 102.4337 284.5543 09.47077628402514
0 DELTA 1 DEB
1 27480U 68055H   13295.39615015 -.00002117  00000-0 -99950-2 0  3895
2 27480 120.8555 057.6926 2337084 103.8238 283.1510 09.47063459402807
